NORAD_CAT_ID,OBJECT_NAME,OBJECT_TYPE,EPOCH,MEAN_MOTION,ECCENTRICITY,INCLINATION,RA_OF_ASC_NODE,ARG_OF_PERICENTER,MEAN_ANOMALY,BSTAR,MEAN_MOTION_DOT,MEAN_MOTION_DDOT,TLE_LINE0,TLE_LINE1,TLE_LINE2,SEMIMAJOR_AXIS,PERIOD,APOGEE,PERIGEE,DECAYED
56454.0,STARLINK-5959,PAYLOAD,2024-01-21 22:03:13,14.98351327,0.0003554,69.9981,305.4845,282.3655,77.7106,0.00017651,2.015e-05,0.0,0 STARLINK-5959,1 56454U 23064G   24021.91890753  .00002015  00000-0  17651-3 0  9991,2 56454  69.9981 305.4845 0003554 282.3655  77.7106 14.98351327 38748,6950.127,96.106,574.462,569.522,0.0
56454.0,STARLINK-5959,PAYLOAD,2024-01-22 02:51:40,14.98317976,0.000265,70.0012,304.985,241.7571,118.332,-0.00014001,-1.763e-05,0.0,0 STARLINK-5959,1 56454U 23064G   24022.11921506 -.00001763  00000-0 -14001-3 0  9992,2 56454  70.0012 304.9850 0002650 241.7571 118.3320 14.98317976 39134,6950.23,96.108,573.937,570.253,0.0
56454.0,STARLINK-5959,PAYLOAD,2024-01-22 04:27:48,14.98319661,0.0002596,70.0009,304.8169,255.2589,104.8282,-0.00013653,-1.721e-05,0.0,0 STARLINK-5959,1 56454U 23064G   24022.18597534 -.00001721  00000-0 -13653-3 0  9995,2 56454  70.0009 304.8169 0002596 255.2589 104.8282 14.98319661 38780,6950.225,96.108,573.894,570.286,0.0
56454.0,STARLINK-5959,PAYLOAD,2024-01-22 18:53:01,14.98306545,0.0002341,70.0023,303.3031,247.2645,112.8267,-0.00012065,-1.531e-05,0.0,0 STARLINK-5959,1 56454U 23064G   24022.78682837 -.00001531  00000-0 -12065-3 0  9997,2 56454  70.0023 303.3031 0002341 247.2645 112.8267 14.98306545 39230,6950.265,96.109,573.757,570.503,0.0
56454.0,STARLINK-5959,PAYLOAD,2024-01-22 22:05:18,14.98302699,0.0002786,70.0014,302.9671,237.5369,122.5521,-0.00017092,-2.13e-05,0.0,0 STARLINK-5959,1 56454U 23064G   24022.92035305 -.00002130  00000-0 -17092-3 0  9996,2 56454  70.0014 302.9671 0002786 237.5369 122.5521 14.98302699 38891,6950.277,96.109,574.079,570.206,0.0
56454.0,STARLINK-5959,PAYLOAD,2024-01-23 04:29:51,14.9830205,0.0002797,70.0007,302.2927,249.9736,110.1122,-0.00020119,-2.491e-05,0.0,0 STARLINK-5959,1 56454U 23064G   24023.18739926 -.00002491  00000-0 -20119-3 0  9999,2 56454  70.0007 302.2927 0002797 249.9736 110.1122 14.98302050 38933,6950.279,96.109,574.088,570.2,0.0
56454.0,STARLINK-5959,PAYLOAD,2024-01-23 22:07:17,14.9833756,0.0002626,70.0011,300.4368,261.927,98.1591,-7.2084e-05,-9.53e-06,0.0,0 STARLINK-5959,1 56454U 23064G   24023.92173427 -.00000953  00000-0 -72084-4 0  9999,2 56454  70.0011 300.4368 0002626 261.9270  98.1591 14.98337560 39047,6950.17,96.107,573.86,570.209,0.0
56454.0,STARLINK-5959,PAYLOAD,2024-01-24 02:55:41,14.98342665,0.0002391,70.0027,299.9357,234.543,125.5506,-7.9e-06,-1.87e-06,0.0,0 STARLINK-5959,1 56454U 23064G   24024.12200790 -.00000187  00000-0 -79000-5 0  9991,2 56454  70.0027 299.9357 0002391 234.5430 125.5506 14.98342665 39433,6950.154,96.106,573.681,570.357,0.0
56454.0,STARLINK-5959,PAYLOAD,2024-01-24 04:31:49,14.98343636,0.0002337,70.0023,299.7663,247.3767,112.7145,3.8706e-06,-4.7e-07,0.0,0 STARLINK-5959,1 56454U 23064G   24024.18876730 -.00000047  00000-0  38706-5 0  9992,2 56454  70.0023 299.7663 0002337 247.3767 112.7145 14.98343636 39089,6950.151,96.106,573.64,570.391,0.0
56454.0,STARLINK-5959,PAYLOAD,2024-01-24 20:33:10,14.9832348,0.0002533,70.0019,298.0846,243.1117,116.9783,0.00038393,4.49e-05,0.0,0 STARLINK-5959,1 56454U 23064G   24024.85636981  .00004490  00000-0  38393-3 0  9993,2 56454  70.0019 298.0846 0002533 243.1117 116.9783 14.98323480 39540,6950.213,96.107,573.839,570.318,0.0
56454.0,STARLINK-5959,PAYLOAD,2024-01-24 22:09:18,14.98323726,0.0002537,70.0018,297.9162,242.5414,117.5487,0.00037723,4.41e-05,0.0,0 STARLINK-5959,1 56454U 23064G   24024.92312995  .00004410  00000-0  37723-3 0  9995,2 56454  70.0018 297.9162 0002537 242.5414 117.5487 14.98323726 39197,6950.212,96.107,573.841,570.314,0.0
56454.0,STARLINK-5959,PAYLOAD,2024-01-25 02:57:42,14.98322462,0.0002544,70.0016,297.411,233.0558,127.0368,0.00032082,3.736e-05,0.0,0 STARLINK-5959,1 56454U 23064G   24025.12341283  .00003736  00000-0  32082-3 0  9993,2 56454  70.0016 297.4110 0002544 233.0558 127.0368 14.98322462 39229,6950.216,96.107,573.849,570.313,0.0
56454.0,STARLINK-5959,PAYLOAD,2024-01-25 20:35:11,14.98337241,0.0002561,70.0014,295.56,232.9389,127.1536,-0.00011304,-1.442e-05,0.0,0 STARLINK-5959,1 56454U 23064G   24025.85777461 -.00001442  00000-0 -11304-3 0  9992,2 56454  70.0014 295.5600 0002561 232.9389 127.1536 14.98337241 39699,6950.17,96.107,573.815,570.256,0.0
56454.0,STARLINK-5959,PAYLOAD,2024-01-25 22:11:19,14.98336919,0.000256,70.0014,295.3916,233.2996,126.7928,-0.00011466,-1.461e-05,0.0,0 STARLINK-5959,1 56454U 23064G   24025.92453446 -.00001461  00000-0 -11466-3 0  9994,2 56454  70.0014 295.3916 0002560 233.2996 126.7928 14.98336919 39347,6950.171,96.107,573.816,570.257,0.0
56454.0,STARLINK-5959,PAYLOAD,2024-01-26 02:59:44,14.98334464,0.0002566,70.0013,294.8865,235.1665,124.9253,-0.00013826,-1.742e-05,0.0,0 STARLINK-5959,1 56454U 23064G   24026.12481585 -.00001742  00000-0 -13826-3 0  9996,2 56454  70.0013 294.8865 0002566 235.1665 124.9253 14.98334464 39370,6950.179,96.107,573.828,570.261,0.0
56454.0,STARLINK-5959,PAYLOAD,2024-01-27 03:01:44,14.98337284,0.0002495,70.0007,292.3603,245.8332,114.2566,-2.9391e-05,-4.44e-06,0.0,0 STARLINK-5959,1 56454U 23064G   24027.12620672 -.00000444  00000-0 -29391-4 0  9992,2 56454  70.0007 292.3603 0002495 245.8332 114.2566 14.98337284 39884,6950.17,96.107,573.769,570.301,0.0
56454.0,STARLINK-5959,PAYLOAD,2024-01-27 19:03:05,14.98328681,0.0002482,70.0006,290.6769,248.4253,111.6642,3.174e-05,2.86e-06,0.0,0 STARLINK-5959,1 56454U 23064G   24027.79380904  .00000286  00000-0  31740-4 0  9999,2 56454  70.0006 290.6769 0002482 248.4253 111.6642 14.98328681 39982,6950.197,96.107,573.787,570.337,0.0
56454.0,STARLINK-5959,PAYLOAD,2024-01-27 22:15:21,14.98328154,0.0002499,70.0006,290.3404,247.902,112.1874,2.2742e-05,1.78e-06,0.0,0 STARLINK-5959,1 56454U 23064G   24027.92732956  .00000178  00000-0  22742-4 0  9994,2 56454  70.0006 290.3404 0002499 247.9020 112.1874 14.98328154 39640,6950.199,96.107,573.8,570.327,0.0
56454.0,STARLINK-5959,PAYLOAD,2024-01-28 03:03:45,14.98326092,0.0002533,70.0004,289.8351,250.6763,109.4122,-5.8378e-06,-1.63e-06,0.0,0 STARLINK-5959,1 56454U 23064G   24028.12761207 -.00000163  00000-0 -58378-5 0  9999,2 56454  70.0004 289.8351 0002533 250.6763 109.4122 14.98326092 39673,6950.205,96.107,573.83,570.309,0.0
56454.0,STARLINK-5959,PAYLOAD,2024-01-28 19:05:06,14.98331493,0.0002522,70.0002,288.1512,255.5357,104.5522,-3.0223e-05,-4.54e-06,0.0,0 STARLINK-5959,1 56454U 23064G   24028.79521004 -.00000454  00000-0 -30223-4 0  9992,2 56454  70.0002 288.1512 0002522 255.5357 104.5522 14.98331493 40137,6950.188,96.107,573.806,570.3,0.0
56454.0,STARLINK-5959,PAYLOAD,2024-01-28 22:17:22,14.98330878,0.0002541,70.0001,287.814,255.4404,104.6473,-3.629e-05,-5.26e-06,0.0,0 STARLINK-5959,1 56454U 23064G   24028.92873040 -.00000526  00000-0 -36290-4 0  9997,2 56454  70.0001 287.8140 0002541 255.4404 104.6473 14.98330878 39794,6950.19,96.107,573.821,570.289,0.0
56454.0,STARLINK-5959,PAYLOAD,2024-01-29 03:05:46,14.9833244,0.0002505,70.0001,287.3092,254.091,105.9973,-1.3751e-05,-2.57e-06,0.0,0 STARLINK-5959,1 56454U 23064G   24029.12900849 -.00000257  00000-0 -13751-4 0  9996,2 56454  70.0001 287.3092 0002505 254.0910 105.9973 14.98332440 39822,6950.185,96.107,573.791,570.309,0.0
56454.0,STARLINK-5959,PAYLOAD,2024-01-30 03:07:47,14.98329967,0.0002543,69.9996,284.7838,262.9561,97.1309,4.6147e-05,4.58e-06,0.0,0 STARLINK-5959,1 56454U 23064G   24030.13040741  .00000458  00000-0  46147-4 0  9991,2 56454  69.9996 284.7838 0002543 262.9561  97.1309 14.98329967 40336,6950.193,96.107,573.825,570.291,0.0
56454.0,STARLINK-5959,PAYLOAD,2024-01-30 22:21:22,14.98346208,0.0002711,70.0,282.7678,265.6708,94.4142,0.00019226,2.203e-05,0.0,0 STARLINK-5959,1 56454U 23064G   24030.93151246  .00002203  00000-0  19226-3 0  9999,2 56454  70.0000 282.7678 0002711 265.6708  94.4142 14.98346208 40090,6950.143,96.106,573.892,570.124,0.0
56454.0,STARLINK-5959,PAYLOAD,2024-01-31 03:09:44,14.98369714,0.000265,69.999,282.2587,251.8804,108.2067,0.00037685,4.411e-05,0.0,0 STARLINK-5959,1 56454U 23064G   24031.13176685  .00004411  00000-0  37685-3 0  9998,2 56454  69.9990 282.2587 0002650 251.8804 108.2067 14.98369714 40485,6950.07,96.104,573.777,570.093,0.0
56454.0,STARLINK-5959,PAYLOAD,2024-02-01 01:35:41,14.98319798,0.0002101,69.9989,279.9025,302.9418,57.1539,-0.00013268,-1.675e-05,0.0,0 STARLINK-5959,1 56454U 23064G   24032.06645694 -.00001675  00000-0 -13268-3 0  9994,2 56454  69.9989 279.9025 0002101 302.9418  57.1539 14.98319798 40622,6950.224,96.108,573.55,570.629,0.0
56454.0,STARLINK-5959,PAYLOAD,2024-02-01 16:00:54,14.98330931,0.000273,69.9977,278.3893,286.7673,73.3187,-0.00022756,-2.807e-05,0.0,0 STARLINK-5959,1 56454U 23064G   24032.66729347 -.00002807  00000-0 -22756-3 0  9998,2 56454  69.9977 278.3893 0002730 286.7673  73.3187 14.98330931 40716,6950.19,96.107,573.952,570.158,0.0
56454.0,STARLINK-5959,PAYLOAD,2024-02-02 01:37:42,14.98328545,0.0002702,69.9982,277.3799,286.1436,73.9426,-0.00020434,-2.53e-05,0.0,0 STARLINK-5959,1 56454U 23064G   24033.06785447 -.00002530  00000-0 -20434-3 0  9990,2 56454  69.9982 277.3799 0002702 286.1436  73.9426 14.98328545 40413,6950.197,96.107,573.94,570.184,0.0
56454.0,STARLINK-5959,PAYLOAD,2024-02-02 19:15:10,14.9832256,0.0002593,69.9979,275.5248,273.7964,86.2899,0.00015912,1.806e-05,0.0,0 STARLINK-5959,1 56454U 23064G   24033.80220676  .00001806  00000-0  15912-3 0  9998,2 56454  69.9979 275.5248 0002593 273.7964  86.2899 14.98322560 40887,6950.216,96.107,573.883,570.279,0.0
56454.0,STARLINK-5959,PAYLOAD,2024-02-02 22:27:26,14.9832254,0.0002597,69.998,275.1881,273.2945,86.7917,0.00015507,1.757e-05,0.0,0 STARLINK-5959,1 56454U 23064G   24033.93572751  .00001757  00000-0  15507-3 0  9991,2 56454  69.9980 275.1881 0002597 273.2945  86.7917 14.98322540 40543,6950.216,96.107,573.886,570.276,0.0
